$$SOE
2460161.500000000, A.D. 2023-Aug-05 00:00:00.0000, 6.734463199714374E+09, 1.782898838015903E+09, 1.410972568890274E+07,
2460168.500000000, A.D. 2023-Aug-12 00:00:00.0000, 6.733833933880393E+09, 1.785147735268973E+09, 1.327773093618631E+07,
2460175.500000000, A.D. 2023-Aug-19 00:00:00.0000, 6.733203610828621E+09, 1.787396345669087E+09, 1.244573683459651E+07,
2460182.500000000, A.D. 2023-Aug-26 00:00:00.0000, 6.732572228948102E+09, 1.789644666038192E+09, 1.161374359915829E+07,
2460189.500000000, A.D. 2023-Sep-02 00:00:00.0000, 6.731939786911297E+09, 1.791892692818279E+09, 1.078175142219973E+07,
2460196.500000000, A.D. 2023-Sep-09 00:00:00.0000, 6.731306283665455E+09, 1.794140421977530E+09, 9.949760463414311E+06,
2460203.500000000, A.D. 2023-Sep-16 00:00:00.0000, 6.730671718606035E+09, 1.796387848745935E+09, 9.117770808424711E+06,
2460210.500000000, A.D. 2023-Sep-23 00:00:00.0000, 6.730036092348598E+09, 1.798634967467141E+09, 8.285782381169677E+06,
2460217.500000000, A.D. 2023-Sep-30 00:00:00.0000, 6.729399407759565E+09, 1.800881772757273E+09, 7.453794938661695E+06,
2460224.500000000, A.D. 2023-Oct-07 00:00:00.0000, 6.728761668892166E+09, 1.803128261427893E+09, 6.621808319772482E+06,
2460231.500000000, A.D. 2023-Oct-14 00:00:00.0000, 6.728122878867414E+09, 1.805374431859927E+09, 5.789822582078934E+06,
2460238.500000000, A.D. 2023-Oct-21 00:00:00.0000, 6.727483039928755E+09, 1.807620282431291E+09, 4.957837861790061E+06,
2460245.500000000, A.D. 2023-Oct-28 00:00:00.0000, 6.726842154246002E+09, 1.809865811258321E+09, 4.125854272341967E+06,
2460252.500000000, A.D. 2023-Nov-04 00:00:00.0000, 6.726200224218548E+09, 1.812111016480637E+09, 3.293871893604159E+06,
2460259.500000000, A.D. 2023-Nov-11 00:00:00.0000, 6.725557252455416E+09, 1.814355896489543E+09, 2.461890786657810E+06,
2460266.500000000, A.D. 2023-Nov-18 00:00:00.0000, 6.724913241651630E+09, 1.816600450035669E+09, 1.629911009006381E+06,
2460273.500000000, A.D. 2023-Nov-25 00:00:00.0000, 6.724268194433762E+09, 1.818844676238414E+09, 7.979326256071329E+05,
2460280.500000000, A.D. 2023-Dec-02 00:00:00.0000, 6.723622113202811E+09, 1.821088574485988E+09, -3.404428759551048E+04,
2460287.500000000, A.D. 2023-Dec-09 00:00:00.0000, 6.722975000052259E+09, 1.823332144167147E+09, -8.660196594756842E+05,
2460294.500000000, A.D. 2023-Dec-16 00:00:00.0000, 6.722326857048842E+09, 1.825575384247181E+09, -1.697993484181762E+06,
2460301.500000000, A.D. 2023-Dec-23 00:00:00.0000, 6.721677687224498E+09, 1.827818293375608E+09, -2.529965902064323E+06,
2460308.500000000, A.D. 2023-Dec-30 00:00:00.0000, 6.721027494939250E+09, 1.830060871574815E+09, -3.361937092515826E+06,
2460315.500000000, A.D. 2024-Jan-06 00:00:00.0000, 6.720376283842609E+09, 1.832303121148950E+09, -4.193907009240746E+06,
2460322.500000000, A.D. 2024-Jan-13 00:00:00.0000, 6.719724055606195E+09, 1.834545045006138E+09, -5.025875396861076E+06,
2460329.500000000, A.D. 2024-Jan-20 00:00:00.0000, 6.719070810651177E+09, 1.836786645478622E+09, -5.857841949255943E+06,
2460336.500000000, A.D. 2024-Jan-27 00:00:00.0000, 6.718416548841770E+09, 1.839027924293002E+09, -6.689806370500326E+06,
2460343.500000000, A.D. 2024-Feb-03 00:00:00.0000, 6.717761269716417E+09, 1.841268882741983E+09, -7.521768376878262E+06,
2460350.500000000, A.D. 2024-Feb-10 00:00:00.0000, 6.717104972534027E+09, 1.843509521766492E+09, -8.353727689406395E+06,
2460357.500000000, A.D. 2024-Feb-17 00:00:00.0000, 6.716447656273975E+09, 1.845749841956094E+09, -9.185684029125929E+06,
2460364.500000000, A.D. 2024-Feb-24 00:00:00.0000, 6.715789319625780E+09, 1.847989843482509E+09, -1.001763711739194E+07,
2460371.500000000, A.D. 2024-Mar-02 00:00:00.0000, 6.715129960997823E+09, 1.850229525933697E+09, -1.084958668662024E+07,
2460378.500000000, A.D. 2024-Mar-09 00:00:00.0000, 6.714469578683924E+09, 1.852468887985655E+09, -1.168153251943827E+07,
2460385.500000000, A.D. 2024-Mar-16 00:00:00.0000, 6.713808171583057E+09, 1.854707927109200E+09, -1.251347453643394E+07,
2460392.500000000, A.D. 2024-Mar-23 00:00:00.0000, 6.713145740368650E+09, 1.856946640420775E+09, -1.334541283240688E+07,
2460399.500000000, A.D. 2024-Mar-30 00:00:00.0000, 6.712482286866298E+09, 1.859185026650489E+09, -1.417734745776391E+07,
2460406.500000000, A.D. 2024-Apr-06 00:00:00.0000, 6.711817811895966E+09, 1.861423085859771E+09, -1.500927824376214E+07,
2460413.500000000, A.D. 2024-Apr-13 00:00:00.0000, 6.711152315129760E+09, 1.863660817745079E+09, -1.584120492895591E+07,
2460420.500000000, A.D. 2024-Apr-20 00:00:00.0000, 6.710485796013159E+09, 1.865898221204291E+09, -1.667312728077006E+07,
2460427.500000000, A.D. 2024-Apr-27 00:00:00.0000, 6.709818254232673E+09, 1.868135294604438E+09, -1.750504511888337E+07,
2460434.500000000, A.D. 2024-May-04 00:00:00.0000, 6.709149689817839E+09, 1.870372036047433E+09, -1.833695830591226E+07,
2460441.500000000, A.D. 2024-May-11 00:00:00.0000, 6.708480103115901E+09, 1.872608443532208E+09, -1.916886673547232E+07,
2460448.500000000, A.D. 2024-May-18 00:00:00.0000, 6.707809494721172E+09, 1.874844515035135E+09, -2.000077032323122E+07,
2460455.500000000, A.D. 2024-May-25 00:00:00.0000, 6.707137865383767E+09, 1.877080248501926E+09, -2.083266900362146E+07,
2460462.500000000, A.D. 2024-Jun-01 00:00:00.0000, 6.706465215957585E+09, 1.879315641693925E+09, -2.166456274218261E+07,
2460469.500000000, A.D. 2024-Jun-08 00:00:00.0000, 6.705791547633877E+09, 1.881550691866126E+09, -2.249645158775413E+07,
2460476.500000000, A.D. 2024-Jun-15 00:00:00.0000, 6.705116862859952E+09, 1.883785395822302E+09, -2.332833575635552E+07,
2460483.500000000, A.D. 2024-Jun-22 00:00:00.0000, 6.704441165937749E+09, 1.886019751522602E+09, -2.416021555824876E+07,
2460490.500000000, A.D. 2024-Jun-29 00:00:00.0000, 6.703764461180713E+09, 1.888253759423027E+09, -2.499209112212396E+07,
2460497.500000000, A.D. 2024-Jul-06 00:00:00.0000, 6.703086751273924E+09, 1.890487421075798E+09, -2.582396236073554E+07,
2460504.500000000, A.D. 2024-Jul-13 00:00:00.0000, 6.702408037786759E+09, 1.892720737814819E+09, -2.665582912583363E+07,
2460511.500000000, A.D. 2024-Jul-20 00:00:00.0000, 6.701728321852429E+09, 1.894953710674979E+09, -2.748769127629459E+07,
2460518.500000000, A.D. 2024-Jul-27 00:00:00.0000, 6.701047604358369E+09, 1.897186340585876E+09, -2.831954867767751E+07,
2460525.500000000, A.D. 2024-Aug-03 00:00:00.0000, 6.700365885920465E+09, 1.899418628465110E+09, -2.915140118895686E+07,
2460532.500000000, A.D. 2024-Aug-10 00:00:00.0000, 6.699683166806842E+09, 1.901650575206887E+09, -2.998324865213609E+07,
2460539.500000000, A.D. 2024-Aug-17 00:00:00.0000, 6.698999446858564E+09, 1.903882181587939E+09, -3.081509088750589E+07,
2460546.500000000, A.D. 2024-Aug-24 00:00:00.0000, 6.698314725435094E+09, 1.906113448068874E+09, -3.164692769915712E+07,
2460553.500000000, A.D. 2024-Aug-31 00:00:00.0000, 6.697629001500101E+09, 1.908344374429838E+09, -3.247875890663230E+07,
2460560.500000000, A.D. 2024-Sep-07 00:00:00.0000, 6.696942274213153E+09, 1.910574959367217E+09, -3.331058442617750E+07,
2460567.500000000, A.D. 2024-Sep-14 00:00:00.0000, 6.696254544112515E+09, 1.912805201047555E+09, -3.414240432827520E+07,
2460574.500000000, A.D. 2024-Sep-21 00:00:00.0000, 6.695565812860220E+09, 1.915035099031496E+09, -3.497421865186608E+07,
2460581.500000000, A.D. 2024-Sep-28 00:00:00.0000, 6.694876081061945E+09, 1.917264654340285E+09, -3.580602719450510E+07,
2460588.500000000, A.D. 2024-Oct-05 00:00:00.0000, 6.694185347831372E+09, 1.919493867666643E+09, -3.663782961504030E+07,
2460595.500000000, A.D. 2024-Oct-12 00:00:00.0000, 6.693493611738412E+09, 1.921722738710222E+09, -3.746962557229733E+07,
2460602.500000000, A.D. 2024-Oct-19 00:00:00.0000, 6.692800871390368E+09, 1.923951266366999E+09, -3.830141476135921E+07,
2460609.500000000, A.D. 2024-Oct-26 00:00:00.0000, 6.692107125613733E+09, 1.926179448971372E+09, -3.913319690997875E+07,
2460616.500000000, A.D. 2024-Nov-02 00:00:00.0000, 6.691412373493994E+09, 1.928407284442845E+09, -3.996497177084732E+07,
2460623.500000000, A.D. 2024-Nov-09 00:00:00.0000, 6.690716614370239E+09, 1.930634770358244E+09, -4.079673911686146E+07,
2460630.500000000, A.D. 2024-Nov-16 00:00:00.0000, 6.690019847810594E+09, 1.932861903950058E+09, -4.162849874169087E+07,
2460637.500000000, A.D. 2024-Nov-23 00:00:00.0000, 6.689322073615561E+09, 1.935088681981255E+09, -4.246025047396386E+07,
2460644.500000000, A.D. 2024-Nov-30 00:00:00.0000, 6.688623292057712E+09, 1.937315100454217E+09, -4.329199422758484E+07,
2460651.500000000, A.D. 2024-Dec-07 00:00:00.0000, 6.687923504777272E+09, 1.939541154574608E+09, -4.412373009217370E+07,
2460658.500000000, A.D. 2024-Dec-14 00:00:00.0000, 6.687222715645059E+09, 1.941766840194350E+09, -4.495545830032074E+07,
2460665.500000000, A.D. 2024-Dec-21 00:00:00.0000, 6.686520929274281E+09, 1.943992155493051E+09, -4.578717896024525E+07,
2460672.500000000, A.D. 2024-Dec-28 00:00:00.0000, 6.685818149153747E+09, 1.946217099930666E+09, -4.661889197709286E+07,
2460679.500000000, A.D. 2025-Jan-04 00:00:00.0000, 6.685114377999739E+09, 1.948441672847618E+09, -4.745059720670772E+07,
2460686.500000000, A.D. 2025-Jan-11 00:00:00.0000, 6.684409618505409E+09, 1.950665873372261E+09, -4.828229453894806E+07,
2460693.500000000, A.D. 2025-Jan-18 00:00:00.0000, 6.683703873570851E+09, 1.952889700716923E+09, -4.911398390128326E+07,
2460700.500000000, A.D. 2025-Jan-25 00:00:00.0000, 6.682997146257509E+09, 1.955113154387984E+09, -4.994566524351704E+07,
2460707.500000000, A.D. 2025-Feb-01 00:00:00.0000, 6.682289439656522E+09, 1.957336234279865E+09, -5.077733852322245E+07,
2460714.500000000, A.D. 2025-Feb-08 00:00:00.0000, 6.681580756729554E+09, 1.959558940672589E+09, -5.160900369539058E+07,
2460721.500000000, A.D. 2025-Feb-15 00:00:00.0000, 6.680871100151004E+09, 1.961781274112895E+09, -5.244066071036911E+07,
2460728.500000000, A.D. 2025-Feb-22 00:00:00.0000, 6.680160472250851E+09, 1.964003235114964E+09, -5.327230953425956E+07,
$$EOE